NORAD_CAT_ID,OBJECT_NAME,OBJECT_TYPE,EPOCH,MEAN_MOTION,ECCENTRICITY,INCLINATION,RA_OF_ASC_NODE,ARG_OF_PERICENTER,MEAN_ANOMALY,BSTAR,MEAN_MOTION_DOT,MEAN_MOTION_DDOT,TLE_LINE0,TLE_LINE1,TLE_LINE2,SEMIMAJOR_AXIS,PERIOD,APOGEE,PERIGEE,DECAYED
53830.0,STARLINK-4761,PAYLOAD,2023-10-25 04:50:58,15.08846829,0.0001648,53.2178,233.7632,90.527,269.5911,0.00038944,5.916e-05,0.0,0 STARLINK-4761,1 53830U 22114N   23298.20207052  .00005916  00000-0  38944-3 0  9993,2 53830  53.2178 233.7632 0001648  90.5270 269.5911 15.08846829 62029,6917.86,95.437,540.865,538.584,0.0
53830.0,STARLINK-4761,PAYLOAD,2023-10-26 03:06:23,15.08831513,0.0001613,53.2172,229.6001,97.756,262.3615,0.00010728,1.419e-05,0.0,0 STARLINK-4761,1 53830U 22114N   23299.12943714  .00001419  00000-0  10728-3 0  9991,2 53830  53.2172 229.6001 0001613  97.7560 262.3615 15.08831513 61621,6917.906,95.438,540.887,538.655,0.0
53830.0,STARLINK-4761,PAYLOAD,2023-10-27 04:32:32,15.08867054,0.000139,53.2167,224.8424,101.6476,258.4672,0.00071319,0.00011089,0.0,0 STARLINK-4761,1 53830U 22114N   23300.18926059  .00011089  00000-0  71319-3 0  9990,2 53830  53.2167 224.8424 0001390 101.6476 258.4672 15.08867054 61789,6917.798,95.436,540.624,538.701,0.0
53830.0,STARLINK-4761,PAYLOAD,2023-10-27 12:29:28,15.08842511,0.0001426,53.2167,223.3549,99.7848,260.3305,0.00019268,2.78e-05,0.0,0 STARLINK-4761,1 53830U 22114N   23300.52046892  .00002780  00000-0  19268-3 0  9999,2 53830  53.2167 223.3549 0001426  99.7848 260.3305 15.08842511 61833,6917.873,95.437,540.724,538.751,0.0
53830.0,STARLINK-4761,PAYLOAD,2023-10-27 18:51:01,15.08843335,0.0002087,53.2157,222.1669,92.4454,267.6777,0.00030573,4.581e-05,0.0,0 STARLINK-4761,1 53830U 22114N   23300.78543627  .00004581  00000-0  30573-3 0  9998,2 53830  53.2157 222.1669 0002087  92.4454 267.6777 15.08843335 62412,6917.87,95.437,541.179,538.291,0.0
53830.0,STARLINK-4761,PAYLOAD,2023-10-28 01:12:34,15.08843272,0.0001398,53.2168,220.9751,99.9578,260.1572,0.00022475,3.291e-05,0.0,0 STARLINK-4761,1 53830U 22114N   23301.05039472  .00003291  00000-0  22475-3 0  9996,2 53830  53.2168 220.9751 0001398  99.9578 260.1572 15.08843272 61910,6917.87,95.437,540.703,538.768,0.0
53830.0,STARLINK-4761,PAYLOAD,2023-10-28 12:20:16,15.08841378,0.0001625,53.2168,218.8934,101.8548,258.2627,0.00012375,1.682e-05,0.0,0 STARLINK-4761,1 53830U 22114N   23301.51407648  .00001682  00000-0  12375-3 0  9991,2 53830  53.2168 218.8934 0001625 101.8548 258.2627 15.08841378 62524,6917.876,95.437,540.865,538.617,0.0
53830.0,STARLINK-4761,PAYLOAD,2023-10-28 21:52:35,15.08837776,0.0001624,53.2165,217.1102,104.5816,255.5356,0.00068167,0.00010577,0.0,0 STARLINK-4761,1 53830U 22114N   23301.91152076  .00010577  00000-0  68167-3 0  9990,2 53830  53.2165 217.1102 0001624 104.5816 255.5356 15.08837776 62589,6917.887,95.438,540.876,538.629,0.0
53830.0,STARLINK-4761,PAYLOAD,2023-10-29 04:14:07,15.08857407,0.0001797,53.2169,215.9182,111.6055,248.5128,0.00080787,0.00012599,0.0,0 STARLINK-4761,1 53830U 22114N   23302.17647363  .00012599  00000-0  80787-3 0  9995,2 53830  53.2169 215.9182 0001797 111.6055 248.5128 15.08857407 62089,6917.827,95.436,540.935,538.449,0.0
53830.0,STARLINK-4761,PAYLOAD,2023-10-29 18:32:36,15.08845716,0.0002396,53.2159,213.2404,98.1862,261.9402,0.00033863,5.106e-05,0.0,0 STARLINK-4761,1 53830U 22114N   23302.77263944  .00005106  00000-0  33863-3 0  9999,2 53830  53.2159 213.2404 0002396  98.1862 261.9402 15.08845716 62171,6917.863,95.437,541.385,538.07,0.0
53830.0,STARLINK-4761,PAYLOAD,2023-10-29 21:43:22,15.0884111,0.0001486,53.2152,212.6494,109.3242,250.7911,0.00024577,3.626e-05,0.0,0 STARLINK-4761,1 53830U 22114N   23302.90511847  .00003626  00000-0  24577-3 0  9999,2 53830  53.2152 212.6494 0001486 109.3242 250.7911 15.08841110 62739,6917.877,95.437,540.77,538.714,0.0
53830.0,STARLINK-4761,PAYLOAD,2023-10-30 21:34:09,15.0884681,0.0001437,53.2168,208.1911,91.5223,268.5933,0.00038654,5.87e-05,0.0,0 STARLINK-4761,1 53830U 22114N   23303.89871885  .00005870  00000-0  38654-3 0  9993,2 53830  53.2168 208.1911 0001437  91.5223 268.5933 15.08846810 62886,6917.86,95.437,540.719,538.73,0.0
53830.0,STARLINK-4761,PAYLOAD,2023-10-31 00:44:55,15.08850858,0.0001424,53.2169,207.5969,86.5134,273.6022,0.00050639,7.783e-05,0.0,0 STARLINK-4761,1 53830U 22114N   23304.03119799  .00007783  00000-0  50639-3 0  9991,2 53830  53.2169 207.5969 0001424  86.5134 273.6022 15.08850858 62360,6917.847,95.437,540.697,538.727,0.0
53830.0,STARLINK-4761,PAYLOAD,2023-10-31 10:17:14,15.08846329,0.0001202,53.2149,205.8109,82.4661,277.6468,0.00043891,6.705e-05,0.0,0 STARLINK-4761,1 53830U 22114N   23304.42863777  .00006705  00000-0  43891-3 0  9991,2 53830  53.2149 205.8109 0001202  82.4661 277.6468 15.08846329 62422,6917.861,95.437,540.558,538.895,0.0
53830.0,STARLINK-4761,PAYLOAD,2023-10-31 21:24:56,15.08840474,0.0001458,53.2163,203.7335,101.7608,258.3548,0.00019931,2.886e-05,0.0,0 STARLINK-4761,1 53830U 22114N   23304.89231725  .00002886  00000-0  19931-3 0  9998,2 53830  53.2163 203.7335 0001458 101.7608 258.3548 15.08840474 63033,6917.879,95.438,540.753,538.735,0.0
53830.0,STARLINK-4761,PAYLOAD,2023-11-01 10:08:01,15.08847679,0.0001381,53.2168,201.352,89.8032,270.3118,0.00017318,2.47e-05,0.0,0 STARLINK-4761,1 53830U 22114N   23305.42223519  .00002470  00000-0  17318-3 0  9996,2 53830  53.2168 201.3520 0001381  89.8032 270.3118 15.08847679 62579,6917.857,95.437,540.677,538.767,0.0
53830.0,STARLINK-4761,PAYLOAD,2023-11-01 21:15:43,15.08839963,0.0002202,53.2165,199.2708,86.7823,273.3421,1.5793e-05,-3.7e-07,0.0,0 STARLINK-4761,1 53830U 22114N   23305.88592081 -.00000037  00000-0  15793-4 0  9993,2 53830  53.2165 199.2708 0002202  86.7823 273.3421 15.08839963 62641,6917.881,95.438,541.269,538.222,0.0
53830.0,STARLINK-4761,PAYLOAD,2023-11-01 22:51:06,15.08835937,0.0001779,53.2172,198.9748,90.89,269.2296,-7.0165e-05,-1.404e-05,0.0,0 STARLINK-4761,1 53830U 22114N   23305.95216096 -.00001404  00000-0 -70165-4 0  9994,2 53830  53.2172 198.9748 0001779  90.8900 269.2296 15.08835937 63191,6917.893,95.438,540.989,538.527,0.0
53830.0,STARLINK-4761,PAYLOAD,2023-11-02 21:06:30,15.08842268,0.0001407,53.2155,194.8079,99.5475,260.5676,0.00011761,1.584e-05,0.0,0 STARLINK-4761,1 53830U 22114N   23306.87951791  .00001584  00000-0  11761-3 0  9997,2 53830  53.2155 194.8079 0001407  99.5475 260.5676 15.08842268 63332,6917.873,95.437,540.712,538.765,0.0
53830.0,STARLINK-4761,PAYLOAD,2023-11-03 00:17:16,15.08848968,0.0001487,53.2157,194.214,79.6208,280.4951,0.00023108,3.392e-05,0.0,0 STARLINK-4761,1 53830U 22114N   23307.01199681  .00003392  00000-0  23108-3 0  9993,2 53830  53.2157 194.2140 0001487  79.6208 280.4951 15.08848968 62810,6917.853,95.437,540.747,538.689,0.0
53830.0,STARLINK-4761,PAYLOAD,2023-11-03 09:49:35,15.08841141,0.0001481,53.2163,192.4306,85.8349,274.2813,0.00010873,1.443e-05,0.0,0 STARLINK-4761,1 53830U 22114N   23307.40943931  .00001443  00000-0  10873-3 0  9991,2 53830  53.2163 192.4306 0001481  85.8349 274.2813 15.08841141 62870,6917.877,95.437,540.766,538.717,0.0
53830.0,STARLINK-4761,PAYLOAD,2023-11-03 22:32:40,15.08837523,0.0001531,53.2166,190.0478,96.8706,263.246,5.1801e-05,5.36e-06,0.0,0 STARLINK-4761,1 53830U 22114N   23307.93936235  .00000536  00000-0  51801-4 0  9997,2 53830  53.2166 190.0478 0001531  96.8706 263.2460 15.08837523 63496,6917.888,95.438,540.812,538.694,0.0
53830.0,STARLINK-4761,PAYLOAD,2023-11-04 11:15:46,15.0883845,0.0001415,53.2157,187.6711,102.657,257.458,8.9696e-05,1.14e-05,0.0,0 STARLINK-4761,1 53830U 22114N   23308.46928331  .00001140  00000-0  89696-4 0  9999,2 53830  53.2157 187.6711 0001415 102.6570 257.4580 15.08838450 63032,6917.885,95.438,540.729,538.771,0.0
53830.0,STARLINK-4761,PAYLOAD,2023-11-04 22:23:27,15.08848742,0.0001473,53.2154,185.5885,105.7402,254.3752,0.00013095,1.797e-05,0.0,0 STARLINK-4761,1 53830U 22114N   23308.93295816  .00001797  00000-0  13095-3 0  9993,2 53830  53.2154 185.5885 0001473 105.7402 254.3752 15.08848742 63649,6917.854,95.437,540.738,538.7,0.0
53830.0,STARLINK-4761,PAYLOAD,2023-11-05 09:31:09,15.08852265,0.0001389,53.2154,183.5077,102.117,257.9978,0.00019799,2.866e-05,0.0,0 STARLINK-4761,1 53830U 22114N   23309.39663571  .00002866  00000-0  19799-3 0  9996,2 53830  53.2154 183.5077 0001389 102.1170 257.9978 15.08852265 63711,6917.843,95.437,540.669,538.747,0.0
53830.0,STARLINK-4761,PAYLOAD,2023-11-05 22:14:13,15.0887421,0.0001287,53.216,181.1281,88.9978,271.1162,0.00071168,0.00011067,0.0,0 STARLINK-4761,1 53830U 22114N   23309.92654641  .00011067  00000-0  71168-3 0  9994,2 53830  53.2160 181.1281 0001287  88.9978 271.1162 15.08874210 63798,6917.776,95.435,540.531,538.751,0.0
53830.0,STARLINK-4761,PAYLOAD,2023-11-06 18:54:14,15.08846352,0.0001362,53.2153,177.2623,115.9203,244.193,6.2489e-05,7.07e-06,0.0,0 STARLINK-4761,1 53830U 22114N   23310.78767211  .00000707  00000-0  62489-4 0  9994,2 53830  53.2153 177.2623 0001362 115.9203 244.1930 15.08846352 63386,6917.861,95.437,540.668,538.784,0.0
53830.0,STARLINK-4761,PAYLOAD,2023-11-06 22:05:02,15.08794798,0.0001276,53.2159,176.6675,99.3982,260.7155,-0.0012061,-0.00019408,0.0,0 STARLINK-4761,1 53830U 22114N   23310.92016230 -.00019408  00000-0 -12061-2 0  9997,2 53830  53.2159 176.6675 0001276  99.3982 260.7155 15.08794798 63946,6918.019,95.44,540.766,539.001,0.0
53830.0,STARLINK-4761,PAYLOAD,2023-11-07 01:15:48,15.08790041,0.0001386,53.2165,176.0721,103.9837,256.131,-0.0011766,-0.00018939,0.0,0 STARLINK-4761,1 53830U 22114N   23311.05264744 -.00018939  00000-0 -11766-2 0  9996,2 53830  53.2165 176.0721 0001386 103.9837 256.1310 15.08790041 63424,6918.033,95.441,540.857,538.939,0.0
53830.0,STARLINK-4761,PAYLOAD,2023-11-07 07:37:21,15.08796796,0.0001415,53.2166,174.8839,96.7079,263.4074,-0.00063767,-0.0001041,0.0,0 STARLINK-4761,1 53830U 22114N   23311.31761450 -.00010410  00000-0 -63767-3 0  9996,2 53830  53.2166 174.8839 0001415  96.7079 263.4074 15.08796796 63466,6918.012,95.44,540.856,538.899,0.0
